ORBCOMM FM115           
1 41186U 15081H   25180.75674511  .00000318  00000+0  96445-4 0  9990
2 41186  46.9997 339.7754 0000590 173.1656 186.9239 14.62517535509615
ORBCOMM FM108           
1 41187U 15081J   25180.36690819  .00000422  00000+0  12725-3 0  9991
2 41187  47.0059  49.4514 0002571   0.6559 359.4330 14.58162637508570
ORBCOMM FM117           
1 41188U 15081K   25180.67578459  .00000401  00000+0  12273-3 0  9996
2 41188  47.0023  46.7509 0003024  14.3602 345.7369 14.58167779508663
ORBCOMM FM116           
1 41189U 15081L   25180.59566475  .00000133  00000+0  65077-4 0  9996
2 41189  47.0010 136.9739 0002426 234.5265 125.5394 14.58184110507538
